QIANFAN-97              
1 66039U 25233G   26194.52005750  .00000073  00000+0  94986-4 0  9994
2 66039  88.9986  40.5253 0002009  93.0159 267.1222 13.51015647 36746
QIANFAN-98              
1 66040U 25233H   26194.52826392  .00000074  00000+0  96581-4 0  9993
2 66040  88.9975  40.2524 0002440  83.0288 277.1141 13.51015475 36880
QIANFAN-99              
1 66041U 25233J   26194.53236507  .00000078  00000+0  10208-3 0  9993
2 66041  88.9988  40.5282 0002347  87.1329 273.0091 13.51015537 36749
QIANFAN-100             
1 66042U 25233K   26193.93158770  .00000076  00000+0  98858-4 0  9998
2 66042  88.9999  40.5190 0001970  92.3929 267.7448 13.51043387 36712
QIANFAN-101             
1 66043U 25233L   26194.52317272  .00000196  00000+0  74755-4 0  9992
2 66043  88.9984  37.5432 0017304  62.0267 298.2676 14.26821982 38384
QIANFAN-102             
1 66044U 25233M   26194.54473554  .00000059  00000+0  73041-4 0  9996
2 66044  88.9984  40.4359 0002120  88.6579 271.4815 13.51015420 36796
QIANFAN-103             
1 66045U 25233N   26194.54884505  .00000060  00000+0  74362-4 0  9998
2 66045  88.9987  40.5313 0001945  92.4016 267.7358 13.51016333 36743
QIANFAN-104             
1 66046U 25233P   26194.47904985  .00000064  00000+0  80473-4 0  9990
2 66046  88.9992  40.4419 0002107  87.0656 273.0736 13.51021990 36786
QIANFAN-105             
1 66047U 25233Q   26194.48729889  .00000065  00000+0  81864-4 0  9996
2 66047  89.0009  40.2877 0002119  92.4923 267.6471 13.51020912 36894
QIANFAN-106             
1 66048U 25233R   26194.48305380  .00000067  00000+0  85227-4 0  9992
2 66048  88.9975  40.4927 0002379  84.5781 275.5641 13.51015410 36732
QIANFAN-107             
1 66049U 25233S   26194.49126497  .00000077  00000+0  10010-3 0  9992
2 66049  88.9990  40.5285 0001980  91.6360 268.5018 13.51014914 36746
QIANFAN-108             
1 66050U 25233T   26194.49536487  .00000077  00000+0  10009-3 0  9996
2 66050  88.9983  40.5139 0002316  84.1555 275.9861 13.51016110 36743
