{"fetched_at":"2026-07-13T18:16:35.050Z","source":"https://celestrak.org/NORAD/elements/gp.php?GROUP=qianfan&FORMAT=JSON","constellation":"qianfan","records":[{"OBJECT_NAME":"QIANFAN-97","OBJECT_ID":"2025-233G","EPOCH":"2026-07-13T12:28:52.968000","CLASSIFICATION_TYPE":"U","MEAN_MOTION":13.51015647,"ECCENTRICITY":0.0002009,"INCLINATION":88.9986,"RA_OF_ASC_NODE":40.5253,"ARG_OF_PERICENTER":93.0159,"MEAN_ANOMALY":267.1222,"EPHEMERIS_TYPE":0,"NORAD_CAT_ID":66039,"ELEMENT_SET_NO":999,"REV_AT_EPOCH":3674,"BSTAR":0.000094986,"MEAN_MOTION_DOT":7.3e-7,"MEAN_MOTION_DDOT":0},{"OBJECT_NAME":"QIANFAN-98","OBJECT_ID":"2025-233H","EPOCH":"2026-07-13T12:40:42.002688","CLASSIFICATION_TYPE":"U","MEAN_MOTION":13.51015475,"ECCENTRICITY":0.000244,"INCLINATION":88.9975,"RA_OF_ASC_NODE":40.2524,"ARG_OF_PERICENTER":83.0288,"MEAN_ANOMALY":277.1141,"EPHEMERIS_TYPE":0,"NORAD_CAT_ID":66040,"ELEMENT_SET_NO":999,"REV_AT_EPOCH":3688,"BSTAR":0.000096581,"MEAN_MOTION_DOT":7.4e-7,"MEAN_MOTION_DDOT":0},{"OBJECT_NAME":"QIANFAN-99","OBJECT_ID":"2025-233J","EPOCH":"2026-07-13T12:46:36.342048","CLASSIFICATION_TYPE":"U","MEAN_MOTION":13.51015537,"ECCENTRICITY":0.0002347,"INCLINATION":88.9988,"RA_OF_ASC_NODE":40.5282,"ARG_OF_PERICENTER":87.1329,"MEAN_ANOMALY":273.0091,"EPHEMERIS_TYPE":0,"NORAD_CAT_ID":66041,"ELEMENT_SET_NO":999,"REV_AT_EPOCH":3674,"BSTAR":0.00010208,"MEAN_MOTION_DOT":7.8e-7,"MEAN_MOTION_DDOT":0},{"OBJECT_NAME":"QIANFAN-100","OBJECT_ID":"2025-233K","EPOCH":"2026-07-12T22:21:29.177280","CLASSIFICATION_TYPE":"U","MEAN_MOTION":13.51043387,"ECCENTRICITY":0.00019703,"INCLINATION":88.9999,"RA_OF_ASC_NODE":40.519,"ARG_OF_PERICENTER":92.3929,"MEAN_ANOMALY":267.7448,"EPHEMERIS_TYPE":0,"NORAD_CAT_ID":66042,"ELEMENT_SET_NO":999,"REV_AT_EPOCH":3671,"BSTAR":0.000098858253,"MEAN_MOTION_DOT":7.6e-7,"MEAN_MOTION_DDOT":0},{"OBJECT_NAME":"QIANFAN-101","OBJECT_ID":"2025-233L","EPOCH":"2026-07-13T12:33:22.123008","CLASSIFICATION_TYPE":"U","MEAN_MOTION":14.26821982,"ECCENTRICITY":0.0017304,"INCLINATION":88.9984,"RA_OF_ASC_NODE":37.5432,"ARG_OF_PERICENTER":62.0267,"MEAN_ANOMALY":298.2676,"EPHEMERIS_TYPE":0,"NORAD_CAT_ID":66043,"ELEMENT_SET_NO":999,"REV_AT_EPOCH":3838,"BSTAR":0.000074755,"MEAN_MOTION_DOT":0.00000196,"MEAN_MOTION_DDOT":0},{"OBJECT_NAME":"QIANFAN-102","OBJECT_ID":"2025-233M","EPOCH":"2026-07-13T13:04:25.150656","CLASSIFICATION_TYPE":"U","MEAN_MOTION":13.5101542,"ECCENTRICITY":0.000212,"INCLINATION":88.9984,"RA_OF_ASC_NODE":40.4359,"ARG_OF_PERICENTER":88.6579,"MEAN_ANOMALY":271.4815,"EPHEMERIS_TYPE":0,"NORAD_CAT_ID":66044,"ELEMENT_SET_NO":999,"REV_AT_EPOCH":3679,"BSTAR":0.000073041,"MEAN_MOTION_DOT":5.9e-7,"MEAN_MOTION_DDOT":0},{"OBJECT_NAME":"QIANFAN-103","OBJECT_ID":"2025-233N","EPOCH":"2026-07-13T13:10:20.212320","CLASSIFICATION_TYPE":"U","MEAN_MOTION":13.51016333,"ECCENTRICITY":0.0001945,"INCLINATION":88.9987,"RA_OF_ASC_NODE":40.5313,"ARG_OF_PERICENTER":92.4016,"MEAN_ANOMALY":267.7358,"EPHEMERIS_TYPE":0,"NORAD_CAT_ID":66045,"ELEMENT_SET_NO":999,"REV_AT_EPOCH":3674,"BSTAR":0.000074362,"MEAN_MOTION_DOT":6e-7,"MEAN_MOTION_DDOT":0},{"OBJECT_NAME":"QIANFAN-104","OBJECT_ID":"2025-233P","EPOCH":"2026-07-13T11:29:49.907040","CLASSIFICATION_TYPE":"U","MEAN_MOTION":13.5102199,"ECCENTRICITY":0.0002107,"INCLINATION":88.9992,"RA_OF_ASC_NODE":40.4419,"ARG_OF_PERICENTER":87.0656,"MEAN_ANOMALY":273.0736,"EPHEMERIS_TYPE":0,"NORAD_CAT_ID":66046,"ELEMENT_SET_NO":999,"REV_AT_EPOCH":3678,"BSTAR":0.000080473,"MEAN_MOTION_DOT":6.4e-7,"MEAN_MOTION_DDOT":0},{"OBJECT_NAME":"QIANFAN-105","OBJECT_ID":"2025-233Q","EPOCH":"2026-07-13T11:41:42.624096","CLASSIFICATION_TYPE":"U","MEAN_MOTION":13.51020912,"ECCENTRICITY":0.0002119,"INCLINATION":89.0009,"RA_OF_ASC_NODE":40.2877,"ARG_OF_PERICENTER":92.4923,"MEAN_ANOMALY":267.6471,"EPHEMERIS_TYPE":0,"NORAD_CAT_ID":66047,"ELEMENT_SET_NO":999,"REV_AT_EPOCH":3689,"BSTAR":0.000081864,"MEAN_MOTION_DOT":6.5e-7,"MEAN_MOTION_DDOT":0},{"OBJECT_NAME":"QIANFAN-106","OBJECT_ID":"2025-233R","EPOCH":"2026-07-13T11:35:35.848320","CLASSIFICATION_TYPE":"U","MEAN_MOTION":13.5101541,"ECCENTRICITY":0.0002379,"INCLINATION":88.9975,"RA_OF_ASC_NODE":40.4927,"ARG_OF_PERICENTER":84.5781,"MEAN_ANOMALY":275.5641,"EPHEMERIS_TYPE":0,"NORAD_CAT_ID":66048,"ELEMENT_SET_NO":999,"REV_AT_EPOCH":3673,"BSTAR":0.000085227,"MEAN_MOTION_DOT":6.7e-7,"MEAN_MOTION_DDOT":0},{"OBJECT_NAME":"QIANFAN-107","OBJECT_ID":"2025-233S","EPOCH":"2026-07-13T11:47:25.293408","CLASSIFICATION_TYPE":"U","MEAN_MOTION":13.51014914,"ECCENTRICITY":0.000198,"INCLINATION":88.999,"RA_OF_ASC_NODE":40.5285,"ARG_OF_PERICENTER":91.636,"MEAN_ANOMALY":268.5018,"EPHEMERIS_TYPE":0,"NORAD_CAT_ID":66049,"ELEMENT_SET_NO":999,"REV_AT_EPOCH":3674,"BSTAR":0.0001001,"MEAN_MOTION_DOT":7.7e-7,"MEAN_MOTION_DDOT":0},{"OBJECT_NAME":"QIANFAN-108","OBJECT_ID":"2025-233T","EPOCH":"2026-07-13T11:53:19.524768","CLASSIFICATION_TYPE":"U","MEAN_MOTION":13.5101611,"ECCENTRICITY":0.0002316,"INCLINATION":88.9983,"RA_OF_ASC_NODE":40.5139,"ARG_OF_PERICENTER":84.1555,"MEAN_ANOMALY":275.9861,"EPHEMERIS_TYPE":0,"NORAD_CAT_ID":66050,"ELEMENT_SET_NO":999,"REV_AT_EPOCH":3674,"BSTAR":0.00010009,"MEAN_MOTION_DOT":7.7e-7,"MEAN_MOTION_DDOT":0}]}
